CCSDS_OMM_VERS = 2.0
CREATION_DATE  = 
ORIGINATOR     = 

OBJECT_NAME    = STARLINK-36422
OBJECT_ID      = 2026-003L
CENTER_NAME    = EARTH
REF_FRAME      = TEME
TIME_SYSTEM    = UTC
MEAN_ELEMENT_THEORY = SGP/SGP4

EPOCH          = 2026-01-25T12:00:01.999296
MEAN_MOTION    = 15.75040682
ECCENTRICITY   = .0001554
INCLINATION    = 42.9989
RA_OF_ASC_NODE = 114.9950
ARG_OF_PERICENTER = 274.0113
MEAN_ANOMALY   = 48.6550

EPHEMERIS_TYPE = 0
CLASSIFICATION_TYPE = U
NORAD_CAT_ID   = 67344
ELEMENT_SET_NO = 999
REV_AT_EPOCH   = 372
BSTAR          = .1764E-3
MEAN_MOTION_DOT = .26707E-3
MEAN_MOTION_DDOT = 0

CCSDS_OMM_VERS = 2.0
CREATION_DATE  = 
ORIGINATOR     = 

OBJECT_NAME    = STARLINK-35676
OBJECT_ID      = 2026-003M
CENTER_NAME    = EARTH
REF_FRAME      = TEME
TIME_SYSTEM    = UTC
MEAN_ELEMENT_THEORY = SGP/SGP4

EPOCH          = 2026-01-25T12:00:01.999296
MEAN_MOTION    = 15.75027569
ECCENTRICITY   = .0001536
INCLINATION    = 42.9989
RA_OF_ASC_NODE = 114.9911
ARG_OF_PERICENTER = 259.6195
MEAN_ANOMALY   = 64.9677

EPHEMERIS_TYPE = 0
CLASSIFICATION_TYPE = U
NORAD_CAT_ID   = 67345
ELEMENT_SET_NO = 999
REV_AT_EPOCH   = 372
BSTAR          = .10483E-3
MEAN_MOTION_DOT = .15647E-3
MEAN_MOTION_DDOT = 0

CCSDS_OMM_VERS = 2.0
CREATION_DATE  = 
ORIGINATOR     = 

OBJECT_NAME    = STARLINK-36472
OBJECT_ID      = 2026-003N
CENTER_NAME    = EARTH
REF_FRAME      = TEME
TIME_SYSTEM    = UTC
MEAN_ELEMENT_THEORY = SGP/SGP4

EPOCH          = 2026-01-25T12:00:01.999296
MEAN_MOTION    = 15.75039167
ECCENTRICITY   = .0001632
INCLINATION    = 42.9987
RA_OF_ASC_NODE = 114.9856
ARG_OF_PERICENTER = 266.2609
MEAN_ANOMALY   = 60.2351

EPHEMERIS_TYPE = 0
CLASSIFICATION_TYPE = U
NORAD_CAT_ID   = 67346
ELEMENT_SET_NO = 999
REV_AT_EPOCH   = 372
BSTAR          = .26265E-4
MEAN_MOTION_DOT = .3559E-4
MEAN_MOTION_DDOT = 0

CCSDS_OMM_VERS = 2.0
CREATION_DATE  = 
ORIGINATOR     = 

OBJECT_NAME    = STARLINK-36420
OBJECT_ID      = 2026-003P
CENTER_NAME    = EARTH
REF_FRAME      = TEME
TIME_SYSTEM    = UTC
MEAN_ELEMENT_THEORY = SGP/SGP4

EPOCH          = 2026-01-25T12:00:01.999296
MEAN_MOTION    = 15.75068345
ECCENTRICITY   = .0001536
INCLINATION    = 42.9987
RA_OF_ASC_NODE = 114.9762
ARG_OF_PERICENTER = 284.7343
MEAN_ANOMALY   = 45.5714

EPHEMERIS_TYPE = 0
CLASSIFICATION_TYPE = U
NORAD_CAT_ID   = 67347
ELEMENT_SET_NO = 999
REV_AT_EPOCH   = 373
BSTAR          = .94478E-4
MEAN_MOTION_DOT = .14078E-3
MEAN_MOTION_DDOT = 0

CCSDS_OMM_VERS = 2.0
CREATION_DATE  = 
ORIGINATOR     = 

OBJECT_NAME    = STARLINK-36467
OBJECT_ID      = 2026-003Q
CENTER_NAME    = EARTH
REF_FRAME      = TEME
TIME_SYSTEM    = UTC
MEAN_ELEMENT_THEORY = SGP/SGP4

EPOCH          = 2026-01-25T12:00:01.999296
MEAN_MOTION    = 15.75050948
ECCENTRICITY   = .0001329
INCLINATION    = 42.9987
RA_OF_ASC_NODE = 114.9812
ARG_OF_PERICENTER = 276.6573
MEAN_ANOMALY   = 51.7536

EPHEMERIS_TYPE = 0
CLASSIFICATION_TYPE = U
NORAD_CAT_ID   = 67348
ELEMENT_SET_NO = 999
REV_AT_EPOCH   = 373
BSTAR          = -.11077E-3
MEAN_MOTION_DOT = -.17465E-3
MEAN_MOTION_DDOT = 0

CCSDS_OMM_VERS = 2.0
CREATION_DATE  = 
ORIGINATOR     = 

OBJECT_NAME    = STARLINK-36457
OBJECT_ID      = 2026-003R
CENTER_NAME    = EARTH
REF_FRAME      = TEME
TIME_SYSTEM    = UTC
MEAN_ELEMENT_THEORY = SGP/SGP4

EPOCH          = 2026-01-25T12:00:01.999296
MEAN_MOTION    = 15.75076749
ECCENTRICITY   = .0001466
INCLINATION    = 42.9987
RA_OF_ASC_NODE = 114.9715
ARG_OF_PERICENTER = 266.1470
MEAN_ANOMALY   = 66.1242

EPHEMERIS_TYPE = 0
CLASSIFICATION_TYPE = U
NORAD_CAT_ID   = 67349
ELEMENT_SET_NO = 999
REV_AT_EPOCH   = 373
BSTAR          = .24527E-3
MEAN_MOTION_DOT = .37427E-3
MEAN_MOTION_DDOT = 0

CCSDS_OMM_VERS = 2.0
CREATION_DATE  = 
ORIGINATOR     = 

OBJECT_NAME    = STARLINK-36475
OBJECT_ID      = 2026-003S
CENTER_NAME    = EARTH
REF_FRAME      = TEME
TIME_SYSTEM    = UTC
MEAN_ELEMENT_THEORY = SGP/SGP4

EPOCH          = 2026-01-25T12:00:01.999296
MEAN_MOTION    = 15.75021344
ECCENTRICITY   = .0001734
INCLINATION    = 42.9987
RA_OF_ASC_NODE = 114.9662
ARG_OF_PERICENTER = 261.2592
MEAN_ANOMALY   = 72.9071

EPHEMERIS_TYPE = 0
CLASSIFICATION_TYPE = U
NORAD_CAT_ID   = 67350
ELEMENT_SET_NO = 999
REV_AT_EPOCH   = 372
BSTAR          = .55499E-3
MEAN_MOTION_DOT = .85577E-3
MEAN_MOTION_DDOT = 0

CCSDS_OMM_VERS = 2.0
CREATION_DATE  = 
ORIGINATOR     = 

OBJECT_NAME    = STARLINK-36478
OBJECT_ID      = 2026-003T
CENTER_NAME    = EARTH
REF_FRAME      = TEME
TIME_SYSTEM    = UTC
MEAN_ELEMENT_THEORY = SGP/SGP4

EPOCH          = 2026-01-25T12:00:01.999296
MEAN_MOTION    = 15.75029501
ECCENTRICITY   = .000169
INCLINATION    = 42.9988
RA_OF_ASC_NODE = 114.9613
ARG_OF_PERICENTER = 272.8141
MEAN_ANOMALY   = 63.2811

EPHEMERIS_TYPE = 0
CLASSIFICATION_TYPE = U
NORAD_CAT_ID   = 67351
ELEMENT_SET_NO = 999
REV_AT_EPOCH   = 372
BSTAR          = .99935E-4
MEAN_MOTION_DOT = .14894E-3
MEAN_MOTION_DDOT = 0

CCSDS_OMM_VERS = 2.0
CREATION_DATE  = 
ORIGINATOR     = 

OBJECT_NAME    = STARLINK-36479
OBJECT_ID      = 2026-003U
CENTER_NAME    = EARTH
REF_FRAME      = TEME
TIME_SYSTEM    = UTC
MEAN_ELEMENT_THEORY = SGP/SGP4

EPOCH          = 2026-01-25T12:00:01.999296
MEAN_MOTION    = 15.75041670
ECCENTRICITY   = .0001768
INCLINATION    = 42.9987
RA_OF_ASC_NODE = 114.9566
ARG_OF_PERICENTER = 259.7335
MEAN_ANOMALY   = 78.2608

EPHEMERIS_TYPE = 0
CLASSIFICATION_TYPE = U
NORAD_CAT_ID   = 67352
ELEMENT_SET_NO = 999
REV_AT_EPOCH   = 373
BSTAR          = .28506E-3
MEAN_MOTION_DOT = .43541E-3
MEAN_MOTION_DDOT = 0

CCSDS_OMM_VERS = 2.0
CREATION_DATE  = 
ORIGINATOR     = 

OBJECT_NAME    = STARLINK-36474
OBJECT_ID      = 2026-003V
CENTER_NAME    = EARTH
REF_FRAME      = TEME
TIME_SYSTEM    = UTC
MEAN_ELEMENT_THEORY = SGP/SGP4

EPOCH          = 2026-01-25T12:00:01.999296
MEAN_MOTION    = 15.75052716
ECCENTRICITY   = .0001446
INCLINATION    = 42.9987
RA_OF_ASC_NODE = 114.9518
ARG_OF_PERICENTER = 259.6568
MEAN_ANOMALY   = 80.2541

EPHEMERIS_TYPE = 0
CLASSIFICATION_TYPE = U
NORAD_CAT_ID   = 67353
ELEMENT_SET_NO = 999
REV_AT_EPOCH   = 373
BSTAR          = -.62715E-4
MEAN_MOTION_DOT = -.10105E-3
MEAN_MOTION_DDOT = 0

CCSDS_OMM_VERS = 2.0
CREATION_DATE  = 
ORIGINATOR     = 

OBJECT_NAME    = STARLINK-36448
OBJECT_ID      = 2026-003W
CENTER_NAME    = EARTH
REF_FRAME      = TEME
TIME_SYSTEM    = UTC
MEAN_ELEMENT_THEORY = SGP/SGP4

EPOCH          = 2026-01-25T12:00:01.999296
MEAN_MOTION    = 15.75033825
ECCENTRICITY   = .0001798
INCLINATION    = 42.9987
RA_OF_ASC_NODE = 114.9371
ARG_OF_PERICENTER = 248.7822
MEAN_ANOMALY   = 96.8818

EPHEMERIS_TYPE = 0
CLASSIFICATION_TYPE = U
NORAD_CAT_ID   = 67354
ELEMENT_SET_NO = 999
REV_AT_EPOCH   = 373
BSTAR          = .46559E-3
MEAN_MOTION_DOT = .71635E-3
MEAN_MOTION_DDOT = 0

CCSDS_OMM_VERS = 2.0
CREATION_DATE  = 
ORIGINATOR     = 

OBJECT_NAME    = STARLINK-36477
OBJECT_ID      = 2026-003X
CENTER_NAME    = EARTH
REF_FRAME      = TEME
TIME_SYSTEM    = UTC
MEAN_ELEMENT_THEORY = SGP/SGP4

EPOCH          = 2026-01-25T12:00:01.999296
MEAN_MOTION    = 15.75041406
ECCENTRICITY   = .0001715
INCLINATION    = 42.9987
RA_OF_ASC_NODE = 114.9469
ARG_OF_PERICENTER = 287.8696
MEAN_ANOMALY   = 53.9729

EPHEMERIS_TYPE = 0
CLASSIFICATION_TYPE = U
NORAD_CAT_ID   = 67355
ELEMENT_SET_NO = 999
REV_AT_EPOCH   = 372
BSTAR          = -.55611E-4
MEAN_MOTION_DOT = -.9012E-4
MEAN_MOTION_DDOT = 0

