STARLINK-36422          
1 67344U 26003L   26025.50002314  .00026707  00000+0  17640-3 0  9997
2 67344  42.9989 114.9950 0001554 274.0113  48.6550 15.75040682  3727
STARLINK-35676          
1 67345U 26003M   26025.50002314  .00015647  00000+0  10483-3 0  9997
2 67345  42.9989 114.9911 0001536 259.6195  64.9677 15.75027569  3724
STARLINK-36472          
1 67346U 26003N   26025.50002314  .00003559  00000+0  26265-4 0  9993
2 67346  42.9987 114.9856 0001632 266.2609  60.2351 15.75039167  3727
STARLINK-36420          
1 67347U 26003P   26025.50002314  .00014078  00000+0  94478-4 0  9993
2 67347  42.9987 114.9762 0001536 284.7343  45.5714 15.75068345  3737
STARLINK-36467          
1 67348U 26003Q   26025.50002314 -.00017465  00000+0 -11077-3 0  9992
2 67348  42.9987 114.9812 0001329 276.6573  51.7536 15.75050948  3730
STARLINK-36457          
1 67349U 26003R   26025.50002314  .00037427  00000+0  24527-3 0  9995
2 67349  42.9987 114.9715 0001466 266.1470  66.1242 15.75076749  3736
STARLINK-36475          
1 67350U 26003S   26025.50002314  .00085577  00000+0  55499-3 0  9998
2 67350  42.9987 114.9662 0001734 261.2592  72.9071 15.75021344  3723
STARLINK-36478          
1 67351U 26003T   26025.50002314  .00014894  00000+0  99935-4 0  9997
2 67351  42.9988 114.9613 0001690 272.8141  63.2811 15.75029501  3728
STARLINK-36479          
1 67352U 26003U   26025.50002314  .00043541  00000+0  28506-3 0  9994
2 67352  42.9987 114.9566 0001768 259.7335  78.2608 15.75041670  3732
STARLINK-36474          
1 67353U 26003V   26025.50002314 -.00010105  00000+0 -62715-4 0  9998
2 67353  42.9987 114.9518 0001446 259.6568  80.2541 15.75052716  3732
STARLINK-36448          
1 67354U 26003W   26025.50002314  .00071635  00000+0  46559-3 0  9999
2 67354  42.9987 114.9371 0001798 248.7822  96.8818 15.75033825  3732
STARLINK-36477          
1 67355U 26003X   26025.50002314 -.00009012  00000+0 -55611-4 0  9992
2 67355  42.9987 114.9469 0001715 287.8696  53.9729 15.75041406  3721
